{
  "type": "FeatureCollection",
  "features": [
    {
      "type": "Feature",
      "properties": {
        "norad_id": 31051,
        "name": "FENGYUN 1C DEB",
        "group": "fengyun-1c-debris",
        "lat": 46.85262763100169,
        "lon": -1.3952316587598188,
        "alt_km": 894.5984941844436,
        "timestamp": "2025-12-03T06:58:43.518156+00:00",
        "meta_object_name": "FENGYUN 1C DEB",
        "meta_object_id": "1999-025BEV",
        "meta_epoch": "2025-11-29T08:36:57.509280",
        "meta_mean_motion": 14.03023318,
        "meta_eccentricity": 0.00528722,
        "meta_inclination": 98.8207,
        "meta_ra_of_asc_node": 4.3303,
        "meta_arg_of_pericenter": 172.6282,
        "meta_mean_anomaly": 187.5674,
        "meta_ephemeris_type": 0,
        "meta_classification_type": "U",
        "meta_norad_cat_id": 31051,
        "meta_element_set_no": 999,
        "meta_rev_at_epoch": 63631,
        "meta_bstar": 0.00023865273,
        "meta_mean_motion_dot": 3.33e-06,
        "meta_mean_motion_ddot": 0,
        "tle_line1": "1 31051U 99025BEV 25333.35899895  .00000333  00000+0  23865-3 0  9992",
        "tle_line2": "2 31051  98.8207   4.3303 0052872 172.6282 187.5674 14.03023318636313"
      },
      "geometry": {
        "type": "Point",
        "coordinates": [
          -1.3952316587598188,
          46.85262763100169
        ]
      }
    },
    {
      "type": "Feature",
      "properties": {
        "norad_id": 31053,
        "name": "FENGYUN 1C DEB",
        "group": "fengyun-1c-debris",
        "lat": 53.533814940196926,
        "lon": -67.40442996790144,
        "alt_km": 746.7840677610939,
        "timestamp": "2025-12-03T06:58:43.518166+00:00",
        "meta_object_name": "FENGYUN 1C DEB",
        "meta_object_id": "1999-025BEX",
        "meta_epoch": "2025-12-02T07:41:49.568640",
        "meta_mean_motion": 13.75789314,
        "meta_eccentricity": 0.0309657,
        "meta_inclination": 98.7929,
        "meta_ra_of_asc_node": 99.61,
        "meta_arg_of_pericenter": 122.818,
        "meta_mean_anomaly": 240.3196,
        "meta_ephemeris_type": 0,
        "meta_classification_type": "U",
        "meta_norad_cat_id": 31053,
        "meta_element_set_no": 999,
        "meta_rev_at_epoch": 93333,
        "meta_bstar": 0.0026029,
        "meta_mean_motion_dot": 3.54e-05,
        "meta_mean_motion_ddot": 0,
        "tle_line1": "1 31053U 99025BEX 25336.32071260  .00003540  00000+0  26029-2 0  9999",
        "tle_line2": "2 31053  98.7929  99.6100 0309657 122.8180 240.3196 13.75789314933339"
      },
      "geometry": {
        "type": "Point",
        "coordinates": [
          -67.40442996790144,
          53.533814940196926
        ]
      }
    },
    {
      "type": "Feature",
      "properties": {
        "norad_id": 31054,
        "name": "FENGYUN 1C DEB",
        "group": "fengyun-1c-debris",
        "lat": 65.38451071282651,
        "lon": -169.88637229431447,
        "alt_km": 839.241282621656,
        "timestamp": "2025-12-03T06:58:43.518176+00:00",
        "meta_object_name": "FENGYUN 1C DEB",
        "meta_object_id": "1999-025BEY",
        "meta_epoch": "2025-12-02T12:27:34.153056",
        "meta_mean_motion": 14.12160345,
        "meta_eccentricity": 0.00103404,
        "meta_inclination": 98.6909,
        "meta_ra_of_asc_node": 349.8633,
        "meta_arg_of_pericenter": 147.3957,
        "meta_mean_anomaly": 5.1118,
        "meta_ephemeris_type": 0,
        "meta_classification_type": "U",
        "meta_norad_cat_id": 31054,
        "meta_element_set_no": 999,
        "meta_rev_at_epoch": 96619,
        "meta_bstar": 0.00021982764,
        "meta_mean_motion_dot": 3.61e-06,
        "meta_mean_motion_ddot": 0,
        "tle_line1": "1 31054U 99025BEY 25336.51914529  .00000361  00000+0  21983-3 0  9998",
        "tle_line2": "2 31054  98.6909 349.8633 0010340 147.3957   5.1118 14.12160345966190"
      },
      "geometry": {
        "type": "Point",
        "coordinates": [
          -169.88637229431447,
          65.38451071282651
        ]
      }
    },
    {
      "type": "Feature",
      "properties": {
        "norad_id": 31055,
        "name": "FENGYUN 1C DEB",
        "group": "fengyun-1c-debris",
        "lat": -61.79806252837302,
        "lon": 25.45733371697369,
        "alt_km": 847.9172380674745,
        "timestamp": "2025-12-03T06:58:43.518186+00:00",
        "meta_object_name": "FENGYUN 1C DEB",
        "meta_object_id": "1999-025BEZ",
        "meta_epoch": "2025-12-02T00:46:11.355168",
        "meta_mean_motion": 14.10356263,
        "meta_eccentricity": 0.00240255,
        "meta_inclination": 98.7611,
        "meta_ra_of_asc_node": 7.5181,
        "meta_arg_of_pericenter": 303.5199,
        "meta_mean_anomaly": 86.2189,
        "meta_ephemeris_type": 0,
        "meta_classification_type": "U",
        "meta_norad_cat_id": 31055,
        "meta_element_set_no": 999,
        "meta_rev_at_epoch": 95971,
        "meta_bstar": 0.00042334893,
        "meta_mean_motion_dot": 7.1e-06,
        "meta_mean_motion_ddot": 0,
        "tle_line1": "1 31055U 99025BEZ 25336.03207587  .00000710  00000+0  42335-3 0  9997",
        "tle_line2": "2 31055  98.7611   7.5181 0024025 303.5199  86.2189 14.10356263959719"
      },
      "geometry": {
        "type": "Point",
        "coordinates": [
          25.45733371697369,
          -61.79806252837302
        ]
      }
    },
    {
      "type": "Feature",
      "properties": {
        "norad_id": 31056,
        "name": "FENGYUN 1C DEB",
        "group": "fengyun-1c-debris",
        "lat": 52.135064793497044,
        "lon": 151.44518993048513,
        "alt_km": 848.4433765108661,
        "timestamp": "2025-12-03T06:58:43.518196+00:00",
        "meta_object_name": "FENGYUN 1C DEB",
        "meta_object_id": "1999-025BFA",
        "meta_epoch": "2025-12-01T10:56:58.898400",
        "meta_mean_motion": 14.14278674,
        "meta_eccentricity": 0.0026141,
        "meta_inclination": 98.667,
        "meta_ra_of_asc_node": 318.3519,
        "meta_arg_of_pericenter": 15.0165,
        "meta_mean_anomaly": 136.483,
        "meta_ephemeris_type": 0,
        "meta_classification_type": "U",
        "meta_norad_cat_id": 31056,
        "meta_element_set_no": 999,
        "meta_rev_at_epoch": 96658,
        "meta_bstar": 0.00044312056,
        "meta_mean_motion_dot": 8.06e-06,
        "meta_mean_motion_ddot": 0,
        "tle_line1": "1 31056U 99025BFA 25335.45623725  .00000806  00000+0  44312-3 0  9992",
        "tle_line2": "2 31056  98.6670 318.3519 0026141  15.0165 136.4830 14.14278674966588"
      },
      "geometry": {
        "type": "Point",
        "coordinates": [
          151.44518993048513,
          52.135064793497044
        ]
      }
    },
    {
      "type": "Feature",
      "properties": {
        "norad_id": 31057,
        "name": "FENGYUN 1C DEB",
        "group": "fengyun-1c-debris",
        "lat": -31.981771419844897,
        "lon": 21.141926763099118,
        "alt_km": 569.5435141826247,
        "timestamp": "2025-12-03T06:58:43.518206+00:00",
        "meta_object_name": "FENGYUN 1C DEB",
        "meta_object_id": "1999-025BFB",
        "meta_epoch": "2025-11-15T08:50:16.083744",
        "meta_mean_motion": 14.78766925,
        "meta_eccentricity": 0.01394535,
        "meta_inclination": 99.2623,
        "meta_ra_of_asc_node": 354.6749,
        "meta_arg_of_pericenter": 337.6801,
        "meta_mean_anomaly": 21.8374,
        "meta_ephemeris_type": 0,
        "meta_classification_type": "U",
        "meta_norad_cat_id": 31057,
        "meta_element_set_no": 999,
        "meta_rev_at_epoch": 61548,
        "meta_bstar": 0.0011048389,
        "meta_mean_motion_dot": 9.496e-05,
        "meta_mean_motion_ddot": 0,
        "tle_line1": "1 31057U 99025BFB 25319.36824171  .00009496  00000+0  11048-2 0  9996",
        "tle_line2": "2 31057  99.2623 354.6749 0139453 337.6801  21.8374 14.78766925615484"
      },
      "geometry": {
        "type": "Point",
        "coordinates": [
          21.141926763099118,
          -31.981771419844897
        ]
      }
    },
    {
      "type": "Feature",
      "properties": {
        "norad_id": 31058,
        "name": "FENGYUN 1C DEB",
        "group": "fengyun-1c-debris",
        "lat": -57.99917224625862,
        "lon": 89.18829851672876,
        "alt_km": 664.7898265639242,
        "timestamp": "2025-12-03T06:58:43.518216+00:00",
        "meta_object_name": "FENGYUN 1C DEB",
        "meta_object_id": "1999-025BFC",
        "meta_epoch": "2025-11-30T14:27:22.580352",
        "meta_mean_motion": 14.76018692,
        "meta_eccentricity": 0.0094738,
        "meta_inclination": 99.5638,
        "meta_ra_of_asc_node": 281.6638,
        "meta_arg_of_pericenter": 143.0864,
        "meta_mean_anomaly": 217.691,
        "meta_ephemeris_type": 0,
        "meta_classification_type": "U",
        "meta_norad_cat_id": 31058,
        "meta_element_set_no": 999,
        "meta_rev_at_epoch": 99370,
        "meta_bstar": 0.0011184,
        "meta_mean_motion_dot": 8.226e-05,
        "meta_mean_motion_ddot": 0,
        "tle_line1": "1 31058U 99025BFC 25334.60234468  .00008226  00000+0  11184-2 0  9996",
        "tle_line2": "2 31058  99.5638 281.6638 0094738 143.0864 217.6910 14.76018692993708"
      },
      "geometry": {
        "type": "Point",
        "coordinates": [
          89.18829851672876,
          -57.99917224625862
        ]
      }
    }
  ]
}